IXPE                    
1 49954U 21121A   24100.25001157  .00005793  00000+0  41905-3 0  9991
2 49954   0.2287 184.9603 0009735 337.9499 297.9739 14.97176639127549
